[{"norad_id":"24793","company":"IRIDIUM","tle_line2":"2 24793  86.3929 114.3881 0002038  80.5422 279.6005 14.36067780493315","launch_date":"1997-05-05","type":"LEO","tle_line1":"1 24793U 97020B   25317.43702471  .00001024  00000+0  34555-3 0  9990","satellite_name":"IRIDIUM 7"},{"norad_id":"24795","company":"IRIDIUM","tle_line2":"2 24795  86.3912  14.7594 0103568 322.5808  36.8239 14.96121630507780","launch_date":"1997-05-05","type":"LEO","tle_line1":"1 24795U 97020D   25317.56495028  .00011989  00000+0  95315-3 0  9995","satellite_name":"IRIDIUM 5"},{"norad_id":"24796","company":"IRIDIUM","tle_line2":"2 24796  86.3926 111.1525 0002114  86.5539 273.5900 14.36971990493904","launch_date":"1997-05-05","type":"LEO","tle_line1":"1 24796U 97020E   25317.46615990  .00001077  00000+0  35737-3 0  9996","satellite_name":"IRIDIUM 4"},{"norad_id":"24836","company":"IRIDIUM","tle_line2":"2 24836  86.3907 119.3158 0003661  87.7433 272.4186 14.41023629628620","launch_date":"1997-06-18","type":"LEO","tle_line1":"1 24836U 97030A   25317.46760992  .00001190  00000+0  36419-3 0  9999","satellite_name":"IRIDIUM 914"},{"norad_id":"24841","company":"IRIDIUM","tle_line2":"2 24841  86.4023 142.6288 0001047   9.8372 350.2847 14.38845284488462","launch_date":"1997-06-18","type":"LEO","tle_line1":"1 24841U 97030F   25317.44345888  .00001048  00000+0  33462-3 0  9993","satellite_name":"IRIDIUM 16"},{"norad_id":"24842","company":"IRIDIUM","tle_line2":"2 24842  86.4446 141.2197 0012967 327.4944  32.5459 14.47837386496689","launch_date":"1997-06-18","type":"LEO","tle_line1":"1 24842U 97030G   25317.48099246  .00001360  00000+0  36188-3 0  9997","satellite_name":"IRIDIUM 911"},{"norad_id":"24870","company":"IRIDIUM","tle_line2":"2 24870  86.3987 172.1028 0000767 131.8182 228.3082 14.37985744485014","launch_date":"1997-07-09","type":"LEO","tle_line1":"1 24870U 97034B   25317.31276462  .00000983  00000+0  31885-3 0  9990","satellite_name":"IRIDIUM 17"},{"norad_id":"24871","company":"IRIDIUM","tle_line2":"2 24871  86.3974 150.9434 0010056 317.4489  42.5931 14.41686983488087","launch_date":"1997-07-09","type":"LEO","tle_line1":"1 24871U 97034C   25317.45844457  .00001042  00000+0  31373-3 0  9990","satellite_name":"IRIDIUM 920"}]